CCSDS_OMM_VERS = 2.0
CREATION_DATE  = 
ORIGINATOR     = 

OBJECT_NAME    = STARLINK-36526
OBJECT_ID      = 2026-012R
CENTER_NAME    = EARTH
REF_FRAME      = TEME
TIME_SYSTEM    = UTC
MEAN_ELEMENT_THEORY = SGP/SGP4

EPOCH          = 2026-02-13T22:00:01.999584
MEAN_MOTION    = 15.47860646
ECCENTRICITY   = .00016296
INCLINATION    = 43.0001
RA_OF_ASC_NODE = 88.6401
ARG_OF_PERICENTER = 273.9136
MEAN_ANOMALY   = 176.5275

EPHEMERIS_TYPE = 0
CLASSIFICATION_TYPE = U
NORAD_CAT_ID   = 67508
ELEMENT_SET_NO = 999
REV_AT_EPOCH   = 525
BSTAR          = -.40530672E-1
MEAN_MOTION_DOT = -.1935799E-1
MEAN_MOTION_DDOT = 0

CCSDS_OMM_VERS = 2.0
CREATION_DATE  = 
ORIGINATOR     = 

OBJECT_NAME    = STARLINK-36541
OBJECT_ID      = 2026-012S
CENTER_NAME    = EARTH
REF_FRAME      = TEME
TIME_SYSTEM    = UTC
MEAN_ELEMENT_THEORY = SGP/SGP4

EPOCH          = 2026-02-13T11:06:14.131584
MEAN_MOTION    = 15.50619440
ECCENTRICITY   = .00010253
INCLINATION    = 43.0021
RA_OF_ASC_NODE = 92.3654
ARG_OF_PERICENTER = 265.0376
MEAN_ANOMALY   = 95.0367

EPHEMERIS_TYPE = 0
CLASSIFICATION_TYPE = U
NORAD_CAT_ID   = 67509
ELEMENT_SET_NO = 999
REV_AT_EPOCH   = 404
BSTAR          = .10665847E-2
MEAN_MOTION_DOT = .62823E-3
MEAN_MOTION_DDOT = 0

CCSDS_OMM_VERS = 2.0
CREATION_DATE  = 
ORIGINATOR     = 

OBJECT_NAME    = STARLINK-36549
OBJECT_ID      = 2026-012T
CENTER_NAME    = EARTH
REF_FRAME      = TEME
TIME_SYSTEM    = UTC
MEAN_ELEMENT_THEORY = SGP/SGP4

EPOCH          = 2026-02-13T22:00:01.999584
MEAN_MOTION    = 15.45265437
ECCENTRICITY   = .00014642
INCLINATION    = 43.0003
RA_OF_ASC_NODE = 88.5380
ARG_OF_PERICENTER = 285.7219
MEAN_ANOMALY   = 203.6001

EPHEMERIS_TYPE = 0
CLASSIFICATION_TYPE = U
NORAD_CAT_ID   = 67510
ELEMENT_SET_NO = 999
REV_AT_EPOCH   = 519
BSTAR          = -.43249232E-1
MEAN_MOTION_DOT = -.1891682E-1
MEAN_MOTION_DDOT = 0

CCSDS_OMM_VERS = 2.0
CREATION_DATE  = 
ORIGINATOR     = 

OBJECT_NAME    = STARLINK-36540
OBJECT_ID      = 2026-012U
CENTER_NAME    = EARTH
REF_FRAME      = TEME
TIME_SYSTEM    = UTC
MEAN_ELEMENT_THEORY = SGP/SGP4

EPOCH          = 2026-02-13T14:09:21.810528
MEAN_MOTION    = 15.50610776
ECCENTRICITY   = .00017712
INCLINATION    = 43.0008
RA_OF_ASC_NODE = 91.5992
ARG_OF_PERICENTER = 283.7685
MEAN_ANOMALY   = 76.2978

EPHEMERIS_TYPE = 0
CLASSIFICATION_TYPE = U
NORAD_CAT_ID   = 67511
ELEMENT_SET_NO = 999
REV_AT_EPOCH   = 406
BSTAR          = .11786954E-2
MEAN_MOTION_DOT = .69503E-3
MEAN_MOTION_DDOT = 0

CCSDS_OMM_VERS = 2.0
CREATION_DATE  = 
ORIGINATOR     = 

OBJECT_NAME    = STARLINK-36538
OBJECT_ID      = 2026-012V
CENTER_NAME    = EARTH
REF_FRAME      = TEME
TIME_SYSTEM    = UTC
MEAN_ELEMENT_THEORY = SGP/SGP4

EPOCH          = 2026-02-13T22:00:01.999584
MEAN_MOTION    = 15.39022177
ECCENTRICITY   = .00012994
INCLINATION    = 43.0002
RA_OF_ASC_NODE = 89.0284
ARG_OF_PERICENTER = 265.1061
MEAN_ANOMALY   = 28.4131

EPHEMERIS_TYPE = 0
CLASSIFICATION_TYPE = U
NORAD_CAT_ID   = 67512
ELEMENT_SET_NO = 999
REV_AT_EPOCH   = 525
BSTAR          = -.52290302E-1
MEAN_MOTION_DOT = -.1855658E-1
MEAN_MOTION_DDOT = 0

CCSDS_OMM_VERS = 2.0
CREATION_DATE  = 
ORIGINATOR     = 

OBJECT_NAME    = STARLINK-36531
OBJECT_ID      = 2026-012W
CENTER_NAME    = EARTH
REF_FRAME      = TEME
TIME_SYSTEM    = UTC
MEAN_ELEMENT_THEORY = SGP/SGP4

EPOCH          = 2026-02-13T22:00:01.999584
MEAN_MOTION    = 15.40460891
ECCENTRICITY   = .00015223
INCLINATION    = 43.0004
RA_OF_ASC_NODE = 88.9259
ARG_OF_PERICENTER = 258.3428
MEAN_ANOMALY   = 76.7708

EPHEMERIS_TYPE = 0
CLASSIFICATION_TYPE = U
NORAD_CAT_ID   = 67513
ELEMENT_SET_NO = 999
REV_AT_EPOCH   = 519
BSTAR          = -.50296303E-1
MEAN_MOTION_DOT = -.187081E-1
MEAN_MOTION_DDOT = 0

CCSDS_OMM_VERS = 2.0
CREATION_DATE  = 
ORIGINATOR     = 

OBJECT_NAME    = STARLINK-36530
OBJECT_ID      = 2026-012X
CENTER_NAME    = EARTH
REF_FRAME      = TEME
TIME_SYSTEM    = UTC
MEAN_ELEMENT_THEORY = SGP/SGP4

EPOCH          = 2026-02-13T22:00:01.999584
MEAN_MOTION    = 15.41607776
ECCENTRICITY   = .00014757
INCLINATION    = 43.0011
RA_OF_ASC_NODE = 88.9513
ARG_OF_PERICENTER = 261.1405
MEAN_ANOMALY   = 63.3242

EPHEMERIS_TYPE = 0
CLASSIFICATION_TYPE = U
NORAD_CAT_ID   = 67514
ELEMENT_SET_NO = 999
REV_AT_EPOCH   = 519
BSTAR          = -.49892892E-1
MEAN_MOTION_DOT = -.1922592E-1
MEAN_MOTION_DDOT = 0

CCSDS_OMM_VERS = 2.0
CREATION_DATE  = 
ORIGINATOR     = 

OBJECT_NAME    = STARLINK-36543
OBJECT_ID      = 2026-012Y
CENTER_NAME    = EARTH
REF_FRAME      = TEME
TIME_SYSTEM    = UTC
MEAN_ELEMENT_THEORY = SGP/SGP4

EPOCH          = 2026-02-13T22:00:01.999584
MEAN_MOTION    = 15.42784684
ECCENTRICITY   = .00014015
INCLINATION    = 43.0001
RA_OF_ASC_NODE = 88.9846
ARG_OF_PERICENTER = 259.6915
MEAN_ANOMALY   = 51.5999

EPHEMERIS_TYPE = 0
CLASSIFICATION_TYPE = U
NORAD_CAT_ID   = 67515
ELEMENT_SET_NO = 999
REV_AT_EPOCH   = 519
BSTAR          = -.47384162E-1
MEAN_MOTION_DOT = -.1902382E-1
MEAN_MOTION_DDOT = 0

CCSDS_OMM_VERS = 2.0
CREATION_DATE  = 
ORIGINATOR     = 

OBJECT_NAME    = STARLINK-36537
OBJECT_ID      = 2026-012Z
CENTER_NAME    = EARTH
REF_FRAME      = TEME
TIME_SYSTEM    = UTC
MEAN_ELEMENT_THEORY = SGP/SGP4

EPOCH          = 2026-02-13T22:00:01.999584
MEAN_MOTION    = 15.42860942
ECCENTRICITY   = .00017663
INCLINATION    = 43.0010
RA_OF_ASC_NODE = 88.8128
ARG_OF_PERICENTER = 267.8128
MEAN_ANOMALY   = 112.1593

EPHEMERIS_TYPE = 0
CLASSIFICATION_TYPE = U
NORAD_CAT_ID   = 67516
ELEMENT_SET_NO = 999
REV_AT_EPOCH   = 519
BSTAR          = -.47231561E-1
MEAN_MOTION_DOT = -.1901483E-1
MEAN_MOTION_DDOT = 0

CCSDS_OMM_VERS = 2.0
CREATION_DATE  = 
ORIGINATOR     = 

OBJECT_NAME    = STARLINK-36544
OBJECT_ID      = 2026-012AA
CENTER_NAME    = EARTH
REF_FRAME      = TEME
TIME_SYSTEM    = UTC
MEAN_ELEMENT_THEORY = SGP/SGP4

EPOCH          = 2026-02-13T22:00:01.999584
MEAN_MOTION    = 15.41059674
ECCENTRICITY   = .00014879
INCLINATION    = 43.0010
RA_OF_ASC_NODE = 88.8027
ARG_OF_PERICENTER = 266.0109
MEAN_ANOMALY   = 117.9826

EPHEMERIS_TYPE = 0
CLASSIFICATION_TYPE = U
NORAD_CAT_ID   = 67517
ELEMENT_SET_NO = 999
REV_AT_EPOCH   = 525
BSTAR          = -.50923286E-1
MEAN_MOTION_DOT = -.192605E-1
MEAN_MOTION_DDOT = 0

CCSDS_OMM_VERS = 2.0
CREATION_DATE  = 
ORIGINATOR     = 

OBJECT_NAME    = STARLINK-36412
OBJECT_ID      = 2026-012AB
CENTER_NAME    = EARTH
REF_FRAME      = TEME
TIME_SYSTEM    = UTC
MEAN_ELEMENT_THEORY = SGP/SGP4

EPOCH          = 2026-02-13T22:00:01.999584
MEAN_MOTION    = 15.45926415
ECCENTRICITY   = .00016153
INCLINATION    = 43.0002
RA_OF_ASC_NODE = 88.7233
ARG_OF_PERICENTER = 274.6468
MEAN_ANOMALY   = 141.8395

EPHEMERIS_TYPE = 0
CLASSIFICATION_TYPE = U
NORAD_CAT_ID   = 67518
ELEMENT_SET_NO = 999
REV_AT_EPOCH   = 519
BSTAR          = -.41859282E-1
MEAN_MOTION_DOT = -.1875218E-1
MEAN_MOTION_DDOT = 0

CCSDS_OMM_VERS = 2.0
CREATION_DATE  = 
ORIGINATOR     = 

OBJECT_NAME    = STARLINK-36415
OBJECT_ID      = 2026-012AC
CENTER_NAME    = EARTH
REF_FRAME      = TEME
TIME_SYSTEM    = UTC
MEAN_ELEMENT_THEORY = SGP/SGP4

EPOCH          = 2026-02-13T22:00:01.999584
MEAN_MOTION    = 15.46802288
ECCENTRICITY   = .00017083
INCLINATION    = 43.0006
RA_OF_ASC_NODE = 88.6833
ARG_OF_PERICENTER = 276.3180
MEAN_ANOMALY   = 155.1510

EPHEMERIS_TYPE = 0
CLASSIFICATION_TYPE = U
NORAD_CAT_ID   = 67519
ELEMENT_SET_NO = 999
REV_AT_EPOCH   = 540
BSTAR          = -.41011236E-1
MEAN_MOTION_DOT = -.1892283E-1
MEAN_MOTION_DDOT = 0

