STARLINK-36526          
1 67508U 26012R   26044.91668981 -.01935799  00000+0 -40531-1 0  9999
2 67508  43.0001  88.6401 0001629 273.9136 176.5275 15.47860646  5254
STARLINK-36541          
1 67509U 26012S   26044.46266356  .00062823  00000+0  10666-2 0  9993
2 67509  43.0021  92.3654 0001025 265.0376  95.0367 15.50619440  4048
STARLINK-36549          
1 67510U 26012T   26044.91668981 -.01891682  00000+0 -43249-1 0  9993
2 67510  43.0003  88.5380 0001464 285.7219 203.6001 15.45265437  5191
STARLINK-36540          
1 67511U 26012U   26044.58983577  .00069503  00000+0  11787-2 0  9997
2 67511  43.0008  91.5992 0001771 283.7685  76.2978 15.50610776  4064
STARLINK-36538          
1 67512U 26012V   26044.91668981 -.01855658  00000+0 -52290-1 0  9994
2 67512  43.0002  89.0284 0001299 265.1061  28.4131 15.39022177  5253
STARLINK-36531          
1 67513U 26012W   26044.91668981 -.01870810  00000+0 -50296-1 0  9996
2 67513  43.0004  88.9259 0001522 258.3428  76.7708 15.40460891  5196
STARLINK-36530          
1 67514U 26012X   26044.91668981 -.01922592  00000+0 -49893-1 0  9993
2 67514  43.0011  88.9513 0001475 261.1405  63.3242 15.41607776  5193
STARLINK-36543          
1 67515U 26012Y   26044.91668981 -.01902382  00000+0 -47384-1 0  9992
2 67515  43.0001  88.9846 0001401 259.6915  51.5999 15.42784684  5192
STARLINK-36537          
1 67516U 26012Z   26044.91668981 -.01901483  00000+0 -47232-1 0  9996
2 67516  43.0010  88.8128 0001766 267.8128 112.1593 15.42860942  5192
STARLINK-36544          
1 67517U 26012AA  26044.91668981 -.01926050  00000+0 -50923-1 0  9995
2 67517  43.0010  88.8027 0001487 266.0109 117.9826 15.41059674  5251
STARLINK-36412          
1 67518U 26012AB  26044.91668981 -.01875218  00000+0 -41859-1 0  9993
2 67518  43.0002  88.7233 0001615 274.6468 141.8395 15.45926415  5197
STARLINK-36415          
1 67519U 26012AC  26044.91668981 -.01892283  00000+0 -41011-1 0  9995
2 67519  43.0006  88.6833 0001708 276.3180 155.1510 15.46802288  5403
